[
  {
    "COMMENT": "GENERATED VIA SPACETRACK.ORG API",
    "ORIGINATOR": "18 SPCS",
    "NORAD_CAT_ID": "46984",
    "OBJECT_NAME": "S6 MICHAEL FREILICH",
    "OBJECT_TYPE": "PAYLOAD",
    "CLASSIFICATION_TYPE": "U",
    "INTLDES": "20086A",
    "EPOCH": "2021-02-23 16:18:13",
    "EPOCH_MICROSECONDS": "856256",
    "MEAN_MOTION": "12.80930696",
    "ECCENTRICITY": "0.0007729",
    "INCLINATION": "66.0422",
    "RA_OF_ASC_NODE": "203.4613",
    "ARG_OF_PERICENTER": "264.9299",
    "MEAN_ANOMALY": "95.0827",
    "EPHEMERIS_TYPE": "0",
    "ELEMENT_SET_NO": "999",
    "REV_AT_EPOCH": "1204",
    "BSTAR": "0",
    "MEAN_MOTION_DOT": "-0.00000061",
    "MEAN_MOTION_DDOT": "0",
    "FILE": "2970025",
    "TLE_LINE0": "0 S6 MICHAEL FREILICH",
    "TLE_LINE1": "1 46984U 20086A   21054.67932704 -.00000061  00000-0  00000-0 0  9995",
    "TLE_LINE2": "2 46984  66.0422 203.4613 0007729 264.9299  95.0827 12.80930696 12040",
    "OBJECT_ID": "2020-086A",
    "OBJECT_NUMBER": "46984",
    "SEMIMAJOR_AXIS": "7715.867",
    "PERIOD": "112.418",
    "APOGEE": "1343.696",
    "PERIGEE": "1331.769",
    "DECAYED": "0"
  },
  {
    "COMMENT": "GENERATED VIA SPACETRACK.ORG API",
    "ORIGINATOR": "18 SPCS",
    "NORAD_CAT_ID": "46984",
    "OBJECT_NAME": "S6 MICHAEL FREILICH",
    "OBJECT_TYPE": "PAYLOAD",
    "CLASSIFICATION_TYPE": "U",
    "INTLDES": "20086A",
    "EPOCH": "2021-02-24 03:32:48",
    "EPOCH_MICROSECONDS": "414912",
    "MEAN_MOTION": "12.80930667",
    "ECCENTRICITY": "0.0007739",
    "INCLINATION": "66.0421",
    "RA_OF_ASC_NODE": "202.4887",
    "ARG_OF_PERICENTER": "264.6674",
    "MEAN_ANOMALY": "95.3453",
    "EPHEMERIS_TYPE": "0",
    "ELEMENT_SET_NO": "999",
    "REV_AT_EPOCH": "1210",
    "BSTAR": "0",
    "MEAN_MOTION_DOT": "-0.00000061",
    "MEAN_MOTION_DDOT": "0",
    "FILE": "2970194",
    "TLE_LINE0": "0 S6 MICHAEL FREILICH",
    "TLE_LINE1": "1 46984U 20086A   21055.14778258 -.00000061  00000-0  00000+0 0  9999",
    "TLE_LINE2": "2 46984  66.0421 202.4887 0007739 264.6674  95.3453 12.80930667 12109",
    "OBJECT_ID": "2020-086A",
    "OBJECT_NUMBER": "46984",
    "SEMIMAJOR_AXIS": "7715.867",
    "PERIOD": "112.418",
    "APOGEE": "1343.704",
    "PERIGEE": "1331.761",
    "DECAYED": "0"
  },
  {
    "COMMENT": "GENERATED VIA SPACETRACK.ORG API",
    "ORIGINATOR": "18 SPCS",
    "NORAD_CAT_ID": "46984",
    "OBJECT_NAME": "S6 MICHAEL FREILICH",
    "OBJECT_TYPE": "PAYLOAD",
    "CLASSIFICATION_TYPE": "U",
    "INTLDES": "20086A",
    "EPOCH": "2021-02-24 09:10:05",
    "EPOCH_MICROSECONDS": "698560",
    "MEAN_MOTION": "12.80930628",
    "ECCENTRICITY": "0.0007714",
    "INCLINATION": "66.0424",
    "RA_OF_ASC_NODE": "202.002",
    "ARG_OF_PERICENTER": "264.5679",
    "MEAN_ANOMALY": "95.4445",
    "EPHEMERIS_TYPE": "0",
    "ELEMENT_SET_NO": "999",
    "REV_AT_EPOCH": "1213",
    "BSTAR": "0",
    "MEAN_MOTION_DOT": "-0.00000061",
    "MEAN_MOTION_DDOT": "0",
    "FILE": "2970454",
    "TLE_LINE0": "0 S6 MICHAEL FREILICH",
    "TLE_LINE1": "1 46984U 20086A   21055.38201040 -.00000061  00000-0  00000+0 0  9995",
    "TLE_LINE2": "2 46984  66.0424 202.0020 0007714 264.5679  95.4445 12.80930628 12136",
    "OBJECT_ID": "2020-086A",
    "OBJECT_NUMBER": "46984",
    "SEMIMAJOR_AXIS": "7715.868",
    "PERIOD": "112.418",
    "APOGEE": "1343.685",
    "PERIGEE": "1331.781",
    "DECAYED": "0"
  },
  {
    "COMMENT": "GENERATED VIA SPACETRACK.ORG API",
    "ORIGINATOR": "18 SPCS",
    "NORAD_CAT_ID": "46984",
    "OBJECT_NAME": "S6 MICHAEL FREILICH",
    "OBJECT_TYPE": "PAYLOAD",
    "CLASSIFICATION_TYPE": "U",
    "INTLDES": "20086A",
    "EPOCH": "2021-02-24 09:10:05",
    "EPOCH_MICROSECONDS": "698560",
    "MEAN_MOTION": "12.80930628",
    "ECCENTRICITY": "0.0007714",
    "INCLINATION": "66.0424",
    "RA_OF_ASC_NODE": "202.002",
    "ARG_OF_PERICENTER": "264.5679",
    "MEAN_ANOMALY": "95.4445",
    "EPHEMERIS_TYPE": "0",
    "ELEMENT_SET_NO": "999",
    "REV_AT_EPOCH": "1213",
    "BSTAR": "0",
    "MEAN_MOTION_DOT": "-0.00000061",
    "MEAN_MOTION_DDOT": "0",
    "FILE": "2970471",
    "TLE_LINE0": "0 S6 MICHAEL FREILICH",
    "TLE_LINE1": "1 46984U 20086A   21055.38201040 -.00000061  00000-0  00000-0 0  9996",
    "TLE_LINE2": "2 46984  66.0424 202.0020 0007714 264.5679  95.4445 12.80930628 12136",
    "OBJECT_ID": "2020-086A",
    "OBJECT_NUMBER": "46984",
    "SEMIMAJOR_AXIS": "7715.868",
    "PERIOD": "112.418",
    "APOGEE": "1343.685",
    "PERIGEE": "1331.781",
    "DECAYED": "0"
  },
  {
    "COMMENT": "GENERATED VIA SPACETRACK.ORG API",
    "ORIGINATOR": "18 SPCS",
    "NORAD_CAT_ID": "46984",
    "OBJECT_NAME": "S6 MICHAEL FREILICH",
    "OBJECT_TYPE": "PAYLOAD",
    "CLASSIFICATION_TYPE": "U",
    "INTLDES": "20086A",
    "EPOCH": "2021-02-24 16:39:48",
    "EPOCH_MICROSECONDS": "752064",
    "MEAN_MOTION": "12.80930552",
    "ECCENTRICITY": "0.0007715",
    "INCLINATION": "66.0424",
    "RA_OF_ASC_NODE": "201.3533",
    "ARG_OF_PERICENTER": "265.1482",
    "MEAN_ANOMALY": "94.8636",
    "EPHEMERIS_TYPE": "0",
    "ELEMENT_SET_NO": "999",
    "REV_AT_EPOCH": "1217",
    "BSTAR": "0",
    "MEAN_MOTION_DOT": "-0.00000061",
    "MEAN_MOTION_DDOT": "0",
    "FILE": "2970640",
    "TLE_LINE0": "0 S6 MICHAEL FREILICH",
    "TLE_LINE1": "1 46984U 20086A   21055.69431426 -.00000061  00000-0  00000-0 0  9993",
    "TLE_LINE2": "2 46984  66.0424 201.3533 0007715 265.1482  94.8636 12.80930552 12172",
    "OBJECT_ID": "2020-086A",
    "OBJECT_NUMBER": "46984",
    "SEMIMAJOR_AXIS": "7715.868",
    "PERIOD": "112.418",
    "APOGEE": "1343.686",
    "PERIGEE": "1331.780",
    "DECAYED": "0"
  },
  {
    "COMMENT": "GENERATED VIA SPACETRACK.ORG API",
    "ORIGINATOR": "18 SPCS",
    "NORAD_CAT_ID": "46984",
    "OBJECT_NAME": "S6 MICHAEL FREILICH",
    "OBJECT_TYPE": "PAYLOAD",
    "CLASSIFICATION_TYPE": "U",
    "INTLDES": "20086A",
    "EPOCH": "2021-02-25 07:39:14",
    "EPOCH_MICROSECONDS": "851296",
    "MEAN_MOTION": "12.80930497",
    "ECCENTRICITY": "0.0007728",
    "INCLINATION": "66.0426",
    "RA_OF_ASC_NODE": "200.0563",
    "ARG_OF_PERICENTER": "265.1713",
    "MEAN_ANOMALY": "94.8407",
    "EPHEMERIS_TYPE": "0",
    "ELEMENT_SET_NO": "999",
    "REV_AT_EPOCH": "1225",
    "BSTAR": "0",
    "MEAN_MOTION_DOT": "-0.00000061",
    "MEAN_MOTION_DDOT": "0",
    "FILE": "2971074",
    "TLE_LINE0": "0 S6 MICHAEL FREILICH",
    "TLE_LINE1": "1 46984U 20086A   21056.31892189 -.00000061  00000-0  00000+0 0  9999",
    "TLE_LINE2": "2 46984  66.0426 200.0563 0007728 265.1713  94.8407 12.80930497 12257",
    "OBJECT_ID": "2020-086A",
    "OBJECT_NUMBER": "46984",
    "SEMIMAJOR_AXIS": "7715.868",
    "PERIOD": "112.418",
    "APOGEE": "1343.696",
    "PERIGEE": "1331.770",
    "DECAYED": "0"
  },
  {
    "COMMENT": "GENERATED VIA SPACETRACK.ORG API",
    "ORIGINATOR": "18 SPCS",
    "NORAD_CAT_ID": "46984",
    "OBJECT_NAME": "S6 MICHAEL FREILICH",
    "OBJECT_TYPE": "PAYLOAD",
    "CLASSIFICATION_TYPE": "U",
    "INTLDES": "20086A",
    "EPOCH": "2021-02-25 15:08:57",
    "EPOCH_MICROSECONDS": "935904",
    "MEAN_MOTION": "12.80930451",
    "ECCENTRICITY": "0.0007722",
    "INCLINATION": "66.0429",
    "RA_OF_ASC_NODE": "199.4079",
    "ARG_OF_PERICENTER": "264.7859",
    "MEAN_ANOMALY": "95.2273",
    "EPHEMERIS_TYPE": "0",
    "ELEMENT_SET_NO": "999",
    "REV_AT_EPOCH": "1229",
    "BSTAR": "0",
    "MEAN_MOTION_DOT": "-0.00000061",
    "MEAN_MOTION_DDOT": "0",
    "FILE": "2971383",
    "TLE_LINE0": "0 S6 MICHAEL FREILICH",
    "TLE_LINE1": "1 46984U 20086A   21056.63122611 -.00000061  00000-0  00000-0 0  9991",
    "TLE_LINE2": "2 46984  66.0429 199.4079 0007722 264.7859  95.2273 12.80930451 12293",
    "OBJECT_ID": "2020-086A",
    "OBJECT_NUMBER": "46984",
    "SEMIMAJOR_AXIS": "7715.868",
    "PERIOD": "112.418",
    "APOGEE": "1343.692",
    "PERIGEE": "1331.775",
    "DECAYED": "0"
  },
  {
    "COMMENT": "GENERATED VIA SPACETRACK.ORG API",
    "ORIGINATOR": "18 SPCS",
    "NORAD_CAT_ID": "46984",
    "OBJECT_NAME": "S6 MICHAEL FREILICH",
    "OBJECT_TYPE": "PAYLOAD",
    "CLASSIFICATION_TYPE": "U",
    "INTLDES": "20086A",
    "EPOCH": "2021-02-26 08:00:49",
    "EPOCH_MICROSECONDS": "809312",
    "MEAN_MOTION": "12.80930354",
    "ECCENTRICITY": "0.0007757",
    "INCLINATION": "66.0427",
    "RA_OF_ASC_NODE": "197.9487",
    "ARG_OF_PERICENTER": "264.9389",
    "MEAN_ANOMALY": "95.0745",
    "EPHEMERIS_TYPE": "0",
    "ELEMENT_SET_NO": "999",
    "REV_AT_EPOCH": "1238",
    "BSTAR": "0",
    "MEAN_MOTION_DOT": "-0.00000061",
    "MEAN_MOTION_DDOT": "0",
    "FILE": "2971570",
    "TLE_LINE0": "0 S6 MICHAEL FREILICH",
    "TLE_LINE1": "1 46984U 20086A   21057.33390983 -.00000061  00000-0  00000+0 0  9997",
    "TLE_LINE2": "2 46984  66.0427 197.9487 0007757 264.9389  95.0745 12.80930354 12389",
    "OBJECT_ID": "2020-086A",
    "OBJECT_NUMBER": "46984",
    "SEMIMAJOR_AXIS": "7715.869",
    "PERIOD": "112.418",
    "APOGEE": "1343.719",
    "PERIGEE": "1331.749",
    "DECAYED": "0"
  }
]